1 46826U 20078A   23120.52346875 -.00000032  00000-0  00000-0 0  9997
2 46826  54.3777 257.2170 0030699 189.8047 169.5074  2.00563256 18560
